NORAD_CAT_ID,OBJECT_NAME,OBJECT_TYPE,EPOCH,MEAN_MOTION,ECCENTRICITY,INCLINATION,RA_OF_ASC_NODE,ARG_OF_PERICENTER,MEAN_ANOMALY,BSTAR,MEAN_MOTION_DOT,MEAN_MOTION_DDOT,TLE_LINE0,TLE_LINE1,TLE_LINE2,SEMIMAJOR_AXIS,PERIOD,APOGEE,PERIGEE,DECAYED
54096.0,STARLINK-5188,PAYLOAD,2023-09-19 09:52:12,15.0886145,0.0001136,53.2169,64.3948,81.5012,278.6109,-0.00011228,-2.075e-05,0.0,0 STARLINK-5188,1 54096U 22136AX  23262.41125256 -.00002075  00000-0 -11228-3 0  9992,2 54096  53.2169  64.3948 0001136  81.5012 278.6109 15.08861450 51247,6917.815,95.436,540.466,538.894,0.0
54096.0,STARLINK-5188,PAYLOAD,2023-09-20 09:42:59,15.08836166,0.0001361,53.217,59.9351,79.152,280.9626,-0.00013738,-2.473e-05,0.0,0 STARLINK-5188,1 54096U 22136AX  23263.40486045 -.00002473  00000-0 -13738-3 0  9998,2 54096  53.2170  59.9351 0001361  79.1520 280.9626 15.08836166 51396,6917.892,95.438,540.699,538.816,0.0
54096.0,STARLINK-5188,PAYLOAD,2023-09-20 14:29:09,15.0882328,0.0001004,53.2173,59.0423,87.0057,273.105,-0.00024304,-4.152e-05,0.0,0 STARLINK-5188,1 54096U 22136AX  23263.60358395 -.00004152  00000-0 -24304-3 0  9993,2 54096  53.2173  59.0423 0001004  87.0057 273.1050 15.08823280 50956,6917.931,95.439,540.491,539.102,0.0
54096.0,STARLINK-5188,PAYLOAD,2023-09-20 17:39:56,15.08821315,0.0001102,53.2171,58.4483,100.9104,259.2012,-0.0003646,-6.083e-05,0.0,0 STARLINK-5188,1 54096U 22136AX  23263.73606548 -.00006083  00000-0 -36460-3 0  9994,2 54096  53.2171  58.4483 0001102 100.9104 259.2012 15.08821315 51445,6917.938,95.439,540.565,539.04,0.0
54096.0,STARLINK-5188,PAYLOAD,2023-09-21 03:12:15,15.08819859,0.0001264,53.2181,56.6648,110.5377,249.5751,0.00058493,9.028e-05,0.0,0 STARLINK-5188,1 54096U 22136AX  23264.13351328  .00009028  00000-0  58493-3 0  9992,2 54096  53.2181  56.6648 0001264 110.5377 249.5751 15.08819859 51034,6917.942,95.439,540.681,538.933,0.0
54096.0,STARLINK-5188,PAYLOAD,2023-09-21 17:30:43,15.08841617,0.0001081,53.2173,53.9868,98.9781,261.1334,0.00088466,0.0001382,0.0,0 STARLINK-5188,1 54096U 22136AX  23264.72967501  .00013820  00000-0  88466-3 0  9991,2 54096  53.2173  53.9868 0001081  98.9781 261.1334 15.08841617 51599,6917.875,95.437,540.488,538.993,0.0
54096.0,STARLINK-5188,PAYLOAD,2023-09-21 20:41:30,15.08847379,0.0001037,53.2173,53.3918,103.1686,256.9422,0.00094068,0.00014718,0.0,0 STARLINK-5188,1 54096U 22136AX  23264.86215378  .00014718  00000-0  94068-3 0  9996,2 54096  53.2173  53.3918 0001037 103.1686 256.9422 15.08847379 51145,6917.858,95.437,540.44,539.005,0.0
54096.0,STARLINK-5188,PAYLOAD,2023-09-22 14:10:44,15.08860121,0.0001004,53.217,50.1216,101.317,258.7935,0.00076438,0.00011905,0.0,0 STARLINK-5188,1 54096U 22136AX  23265.59078900  .00011905  00000-0  76438-3 0  9991,2 54096  53.2170  50.1216 0001004 101.3170 258.7935 15.08860121 51251,6917.819,95.436,540.378,538.989,0.0
54096.0,STARLINK-5188,PAYLOAD,2023-09-22 17:21:30,15.088658,0.0001001,53.2169,49.527,100.3492,259.7614,0.00090357,0.00014132,0.0,0 STARLINK-5188,1 54096U 22136AX  23265.72326682  .00014132  00000-0  90357-3 0  9990,2 54096  53.2169  49.5270 0001001 100.3492 259.7614 15.08865800 51270,6917.802,95.436,540.359,538.974,0.0
54096.0,STARLINK-5188,PAYLOAD,2023-09-23 09:15:21,15.08850644,0.0001063,53.217,46.5523,93.4477,266.6636,0.00040439,6.156e-05,0.0,0 STARLINK-5188,1 54096U 22136AX  23266.38566789  .00006156  00000-0  40439-3 0  9990,2 54096  53.2170  46.5523 0001063  93.4477 266.6636 15.08850644 51847,6917.848,95.437,540.448,538.977,0.0
54096.0,STARLINK-5188,PAYLOAD,2023-09-24 09:06:09,15.08841395,0.0001677,53.2162,42.098,48.7982,311.3155,0.00047424,7.268e-05,0.0,0 STARLINK-5188,1 54096U 22136AX  23267.37927248  .00007268  00000-0  47424-3 0  9997,2 54096  53.2162  42.0980 0001677  48.7982 311.3155 15.08841395 51994,6917.876,95.437,540.901,538.581,0.0
54096.0,STARLINK-5188,PAYLOAD,2023-09-24 13:52:18,15.08840569,0.0001263,53.2166,41.2034,63.3737,296.7384,0.00019507,2.818e-05,0.0,0 STARLINK-5188,1 54096U 22136AX  23267.57799130  .00002818  00000-0  19507-3 0  9993,2 54096  53.2166  41.2034 0001263  63.3737 296.7384 15.08840569 51555,6917.879,95.438,540.617,538.87,0.0
54096.0,STARLINK-5188,PAYLOAD,2023-09-24 15:27:41,15.08846745,0.0001091,53.2169,40.9046,86.7864,273.3253,0.00013178,1.81e-05,0.0,0 STARLINK-5188,1 54096U 22136AX  23267.64422797  .00001810  00000-0  13178-3 0  9992,2 54096  53.2169  40.9046 0001091  86.7864 273.3253 15.08846745 51565,6917.86,95.437,540.48,538.97,0.0
54096.0,STARLINK-5188,PAYLOAD,2023-09-25 08:56:56,15.08844665,0.0001095,53.2159,37.6344,79.1125,280.9991,0.00020692,3.007e-05,0.0,0 STARLINK-5188,1 54096U 22136AX  23268.37287065  .00003007  00000-0  20692-3 0  9999,2 54096  53.2159  37.6344 0001095  79.1125 280.9991 15.08844665 52145,6917.866,95.437,540.489,538.974,0.0
54096.0,STARLINK-5188,PAYLOAD,2023-09-25 13:43:05,15.08848801,0.0001447,53.2182,36.7434,75.4542,284.6611,0.00026407,3.918e-05,0.0,0 STARLINK-5188,1 54096U 22136AX  23268.57158877  .00003918  00000-0  26407-3 0  9990,2 54096  53.2182  36.7434 0001447  75.4542 284.6611 15.08848801 51701,6917.853,95.437,540.72,538.717,0.0
54096.0,STARLINK-5188,PAYLOAD,2023-09-25 15:18:28,15.08852285,0.0001317,53.2186,36.4448,87.1562,272.9581,0.00032491,4.889e-05,0.0,0 STARLINK-5188,1 54096U 22136AX  23268.63782659  .00004889  00000-0  32491-3 0  9996,2 54096  53.2186  36.4448 0001317  87.1562 272.9581 15.08852285 51713,6917.843,95.437,540.619,538.797,0.0
54096.0,STARLINK-5188,PAYLOAD,2023-09-26 13:33:52,15.08834778,0.0001278,53.2167,32.2806,109.6051,250.5079,2.6434e-05,1.33e-06,0.0,0 STARLINK-5188,1 54096U 22136AX  23269.56519581  .00000133  00000-0  26434-4 0  9990,2 54096  53.2167  32.2806 0001278 109.6051 250.5079 15.08834778 51859,6917.896,95.438,540.645,538.877,0.0
54096.0,STARLINK-5188,PAYLOAD,2023-09-26 15:09:16,15.08833907,0.000109,53.2168,31.9833,96.405,263.7066,2.202e-05,6.3e-07,0.0,0 STARLINK-5188,1 54096U 22136AX  23269.63143682  .00000063  00000-0  22020-4 0  9992,2 54096  53.2168  31.9833 0001090  96.4050 263.7066 15.08833907 52339,6917.899,95.438,540.518,539.01,0.0
54096.0,STARLINK-5188,PAYLOAD,2023-09-27 13:24:40,15.08844836,0.0001331,53.2175,27.8208,90.72,269.3944,0.00025084,3.707e-05,0.0,0 STARLINK-5188,1 54096U 22136AX  23270.55879668  .00003707  00000-0  25084-3 0  9995,2 54096  53.2175  27.8208 0001331  90.7200 269.3944 15.08844836 52003,6917.866,95.437,540.651,538.81,0.0
54096.0,STARLINK-5188,PAYLOAD,2023-09-27 15:00:02,15.08849317,0.0001291,53.2181,27.5211,90.6541,269.4599,0.0003096,4.644e-05,0.0,0 STARLINK-5188,1 54096U 22136AX  23270.62503448  .00004644  00000-0  30960-3 0  9993,2 54096  53.2181  27.5211 0001291  90.6541 269.4599 15.08849317 52481,6917.852,95.437,540.61,538.824,0.0
54096.0,STARLINK-5188,PAYLOAD,2023-09-28 13:15:27,15.08842182,0.0001541,53.219,23.3627,109.3798,250.7361,0.00014754,2.061e-05,0.0,0 STARLINK-5188,1 54096U 22136AX  23271.55239728  .00002061  00000-0  14754-3 0  9997,2 54096  53.2190  23.3627 0001541 109.3798 250.7361 15.08842182 52625,6917.874,95.437,540.805,538.673,0.0
54096.0,STARLINK-5188,PAYLOAD,2023-09-28 14:50:50,15.08841925,0.0001465,53.2189,23.0642,103.0118,257.1037,0.00013754,1.902e-05,0.0,0 STARLINK-5188,1 54096U 22136AX  23271.61863738  .00001902  00000-0  13754-3 0  9990,2 54096  53.2189  23.0642 0001465 103.0118 257.1037 15.08841925 52163,6917.875,95.437,540.753,538.726,0.0
54096.0,STARLINK-5188,PAYLOAD,2023-09-28 18:01:36,15.08842067,0.0001393,53.2188,22.4645,87.0926,273.0225,0.00018199,2.61e-05,0.0,0 STARLINK-5188,1 54096U 22136AX  23271.75111750  .00002610  00000-0  18199-3 0  9990,2 54096  53.2188  22.4645 0001393  87.0926 273.0225 15.08842067 52182,6917.874,95.437,540.703,538.775,0.0
54096.0,STARLINK-5188,PAYLOAD,2023-09-29 13:06:14,15.08843482,0.0001373,53.2191,18.8935,93.7936,266.3213,2.7977e-05,1.57e-06,0.0,0 STARLINK-5188,1 54096U 22136AX  23272.54599602  .00000157  00000-0  27977-4 0  9993,2 54096  53.2191  18.8935 0001373  93.7936 266.3213 15.08843482 52308,6917.87,95.437,540.685,538.785,0.0
54096.0,STARLINK-5188,PAYLOAD,2023-09-30 00:13:56,15.08835017,0.000164,53.2195,16.8146,89.9912,270.1268,-5.0983e-05,-1.099e-05,0.0,0 STARLINK-5188,1 54096U 22136AX  23273.00967974 -.00001099  00000-0 -50983-4 0  9997,2 54096  53.2195  16.8146 0001640  89.9912 270.1268 15.08835017 52849,6917.896,95.438,540.895,538.626,0.0
54096.0,STARLINK-5188,PAYLOAD,2023-09-30 16:07:46,15.08861496,0.0001408,53.2184,13.8425,88.1446,271.9708,0.00030908,4.637e-05,0.0,0 STARLINK-5188,1 54096U 22136AX  23273.67206413  .00004637  00000-0  30908-3 0  9997,2 54096  53.2184  13.8425 0001408  88.1446 271.9708 15.08861496 52948,6917.815,95.436,540.654,538.706,0.0
54096.0,STARLINK-5188,PAYLOAD,2023-10-01 00:04:42,15.08847271,0.0001434,53.2191,12.3564,97.1163,262.9992,0.0001157,1.554e-05,0.0,0 STARLINK-5188,1 54096U 22136AX  23274.00326905  .00001554  00000-0  11570-3 0  9993,2 54096  53.2191  12.3564 0001434  97.1163 262.9992 15.08847271 52994,6917.858,95.437,540.715,538.731,0.0
54096.0,STARLINK-5188,PAYLOAD,2023-10-01 12:47:47,15.08852201,0.0001301,53.2182,9.9783,99.0833,261.0307,7.2711e-05,8.7e-06,0.0,0 STARLINK-5188,1 54096U 22136AX  23274.53318557  .00000870  00000-0  72711-4 0  9990,2 54096  53.2182   9.9783 0001301  99.0833 261.0307 15.08852201 52604,6917.843,95.437,540.608,538.808,0.0
54096.0,STARLINK-5188,PAYLOAD,2023-10-01 23:55:29,15.08842393,0.0001375,53.2184,7.8979,85.1262,274.9887,-4.3696e-05,-9.83e-06,0.0,0 STARLINK-5188,1 54096U 22136AX  23274.99686939 -.00000983  00000-0 -43696-4 0  9999,2 54096  53.2184   7.8979 0001375  85.1262 274.9887 15.08842393 53140,6917.873,95.437,540.689,538.787,0.0
54096.0,STARLINK-5188,PAYLOAD,2023-10-02 12:38:35,15.08830746,0.0001694,53.2181,5.519,85.8501,274.2685,-0.00018981,-3.307e-05,0.0,0 STARLINK-5188,1 54096U 22136AX  23275.52679783 -.00003307  00000-0 -18981-3 0  9999,2 54096  53.2181   5.5190 0001694  85.8501 274.2685 15.08830746 53221,6917.909,95.438,540.946,538.602,0.0
